STARLINK-1732
1 26584C 20070BE  21325.17745554  .00000455  00000-0  30508-4 0  3254
2 26584  53.0535   2.4267 0001617  52.8391 336.2592 15.06395046    14
